{
"type": "FeatureCollection",
"name": "Boundary line",
"crs": { "type": "name", "properties": { "name": "urn:ogc:def:crs:OGC:1.3:CRS84" } },
"features": [
{ "type": "Feature", "properties": { "id": "kml_2175", "Name": "BOUNDARY LINE", "description": null, "timestamp": null, "begin": null, "end": null, "altitudeMode": null, "tessellate": -1, "extrude": 0, "visibility": -1, "drawOrder": null, "icon": null }, "geometry": { "type": "MultiLineString", "coordinates": [ [ [ 73.132796117324105, 28.149323789644299, 0.0 ], [ 73.1324058487873, 28.149134209664499, 0.0 ], [ 73.1320038518638, 28.148938619518098, 0.0 ], [ 73.131921465986096, 28.149062736856902, 0.0 ], [ 73.131392617255898, 28.1486941945616, 0.0 ], [ 73.131234066136898, 28.148582989466, 0.0 ], [ 73.130768382460403, 28.149032458632501, 0.0 ], [ 73.130517739765807, 28.149270486231199, 0.0 ], [ 73.130197879547694, 28.149192183196998, 0.0 ], [ 73.130528195076806, 28.1487225941651, 0.0 ], [ 73.130821296028302, 28.148312093640499, 0.0 ], [ 73.131207754230303, 28.147826835364, 0.0 ], [ 73.131934248114803, 28.146917598576, 0.0 ], [ 73.131972020640703, 28.1468654291095, 0.0 ], [ 73.132458744162605, 28.147237961055001, 0.0 ], [ 73.1333189468684, 28.146084470118598, 0.0 ], [ 73.132065149478805, 28.145298669262498, 0.0 ], [ 73.131563037220502, 28.145053657974898, 0.0 ], [ 73.131204506781202, 28.144872926417399, 0.0 ], [ 73.130695841496603, 28.144594522553799, 0.0 ], [ 73.1303141570626, 28.1443437501208, 0.0 ], [ 73.130932332801805, 28.143321578640101, 0.0 ], [ 73.131104108887897, 28.143084648578299, 0.0 ], [ 73.131122460169294, 28.143069115211201, 0.0 ], [ 73.131144551880297, 28.143075047829509, 0.0 ], [ 73.131295709113104, 28.143198253723099, 0.0 ], [ 73.131502441381699, 28.142979180996601, 0.0 ], [ 73.131833744271304, 28.1431615437426, 0.0 ], [ 73.1320950158008, 28.143327880056301, 0.0 ], [ 73.133223634030998, 28.144189412918699, 0.0 ], [ 73.133331749430496, 28.144293818833201, 0.0 ], [ 73.133607182758794, 28.144510367801399, 0.0 ], [ 73.133448421669399, 28.1448042150022, 0.0 ], [ 73.1338399956513, 28.145304278232899, 0.0 ], [ 73.133909176734804, 28.145477542170099, 0.0 ], [ 73.133781071476506, 28.1457173358523, 0.0 ], [ 73.133430663343304, 28.146145138544, 0.0 ], [ 73.133366549837802, 28.146117633813699, 0.0 ], [ 73.132527717579507, 28.147234786264502, 0.0 ], [ 73.132965005184502, 28.147564372121, 0.0 ], [ 73.132397021576097, 28.148473041364898, 0.0 ], [ 73.132080851842005, 28.148918886348302, 0.0 ], [ 73.132801233831998, 28.1492683337563, 0.0 ] ], [ [ 73.148765106256306, 28.1684584175288, 0.0 ], [ 73.149735196635106, 28.1688716387455, 0.0 ], [ 73.150121728356098, 28.169058433808999, 0.0 ], [ 73.150854126075203, 28.169409316518301, 0.0 ], [ 73.151021362459005, 28.169480323422501, 0.0 ], [ 73.151223474265393, 28.169449093796299, 0.0 ], [ 73.151425674654405, 28.169521095769799, 0.0 ], [ 73.151638365689905, 28.1695971737444, 0.0 ], [ 73.151976562614607, 28.169715582304601, 0.0 ], [ 73.152142174323103, 28.1697711796132, 0.0 ], [ 73.152389653774804, 28.169863852684902, 0.0 ], [ 73.152600546219304, 28.169939192000999, 0.0 ], [ 73.152766500197899, 28.1696625445975, 0.0 ], [ 73.153335378215004, 28.1686402433971, 0.0 ], [ 73.154051056833296, 28.169180695216699, 0.0 ], [ 73.154828146018005, 28.169686378683, 0.0 ], [ 73.155065538754101, 28.169809738603501, 0.0 ], [ 73.155532987108003, 28.170020034946401, 0.0 ], [ 73.155004665868205, 28.170959500978501, 0.0 ], [ 73.154707968247095, 28.171395778531998, 0.0 ], [ 73.154807687456199, 28.171481266641099, 0.0 ], [ 73.156168701491694, 28.1726340417373, 0.0 ], [ 73.157136250449099, 28.173413300819401, 0.0 ], [ 73.158116284044098, 28.174148862522902, 0.0 ], [ 73.158386176984607, 28.174425628064, 0.0 ], [ 73.158430488651405, 28.174372095424701, 0.0 ], [ 73.159476177197305, 28.173102581085601, 0.0 ], [ 73.160655022650701, 28.171666558368798, 0.0 ], [ 73.161612482159796, 28.172450127257498, 0.0 ], [ 73.162194523984695, 28.173854263413201, 0.0 ], [ 73.162645084334997, 28.174170275094699, 0.0 ], [ 73.162653467118503, 28.174160668241498, 0.0 ], [ 73.163895346365393, 28.1727154996859, 0.0 ], [ 73.164225296188306, 28.172303462652302, 0.0 ], [ 73.165070607774595, 28.1712877362848, 0.0 ], [ 73.165555818722495, 28.1707308036634, 0.0 ], [ 73.165580225907306, 28.170701755981899, 0.0 ], [ 73.165608711211902, 28.170668259716599, 0.0 ], [ 73.1651889732846, 28.170270412709801, 0.0 ], [ 73.164306344681407, 28.1696246378892, 0.0 ], [ 73.163117800582, 28.168865006929099, 0.0 ], [ 73.162139245705902, 28.168141241737199, 0.0 ], [ 73.163016378785102, 28.166866581415601, 0.0 ], [ 73.1636771377337, 28.166007451429799, 0.0 ], [ 73.164159693060597, 28.165244710717602, 0.0 ], [ 73.164627341012206, 28.1645704067693, 0.0 ], [ 73.162300939103901, 28.163363556395499, 0.0 ], [ 73.161690498284301, 28.164349788823891, 0.0 ], [ 73.161350034994101, 28.164864910579201, 0.0 ], [ 73.161338979459401, 28.164879598377599, 0.0 ], [ 73.160690272477893, 28.1657711412204, 0.0 ], [ 73.160677989156298, 28.165788537857999, 0.0 ], [ 73.160699890817497, 28.1657994087623, 0.0 ], [ 73.160532405326094, 28.166068515944598, 0.0 ], [ 73.160225225041998, 28.166497049466699, 0.0 ], [ 73.160072756228601, 28.1667251790617, 0.0 ], [ 73.159869433437194, 28.166917447591199, 0.0 ], [ 73.158964135395195, 28.167716370575299, 0.0 ], [ 73.158007992221101, 28.1667839798363, 0.0 ], [ 73.157445639729204, 28.166276746267101, 0.0 ], [ 73.157501628883196, 28.166187534736409, 0.0 ], [ 73.157559098313897, 28.166099290667201, 0.0 ], [ 73.157281663896995, 28.165884158891899, 0.0 ], [ 73.156959065010497, 28.165621058227, 0.0 ], [ 73.156336493152295, 28.165104707293299, 0.0 ], [ 73.1551775269307, 28.164362862018599, 0.0 ], [ 73.155540174692703, 28.163662566407002, 0.0 ], [ 73.155956225945403, 28.162935635627299, 0.0 ], [ 73.156307002313397, 28.162389062984101, 0.0 ], [ 73.156348591053401, 28.1623402680877, 0.0 ], [ 73.156481738410903, 28.162105321656501, 0.0 ], [ 73.156616015104504, 28.161894160740701, 0.0 ], [ 73.156947682050102, 28.161163337862199, 0.0 ], [ 73.155121724513904, 28.160383157801501, 0.0 ], [ 73.154523951701407, 28.1601637409955, 0.0 ], [ 73.154419714311302, 28.160286377553899, 0.0 ], [ 73.154317450943694, 28.160406116700599, 0.0 ], [ 73.154061182537404, 28.160266591475501, 0.0 ], [ 73.153714199678106, 28.160075874277901, 0.0 ], [ 73.153709017631797, 28.160083529357099, 0.0 ], [ 73.153487992529804, 28.160369918801099, 0.0 ], [ 73.153214526873498, 28.160718456035209, 0.0 ], [ 73.152823061655496, 28.1605048552745, 0.0 ], [ 73.152488005630104, 28.1603763120299, 0.0 ], [ 73.152243021486598, 28.1602718062543, 0.0 ], [ 73.151552580229904, 28.159861143244999, 0.0 ], [ 73.151055306692797, 28.1604902485204, 0.0 ], [ 73.150402929103606, 28.161197114277801, 0.0 ], [ 73.150387607557803, 28.161191573873701, 0.0 ], [ 73.149036086195693, 28.160294781312, 0.0 ], [ 73.148997995200304, 28.160269774068599, 0.0 ], [ 73.148967160683497, 28.1603059333953, 0.0 ], [ 73.148003106544806, 28.1614391034074, 0.0 ], [ 73.147556244706095, 28.1610451971776, 0.0 ], [ 73.147251036713598, 28.160720573731599, 0.0 ], [ 73.146896013127602, 28.160323449942201, 0.0 ], [ 73.146513482552706, 28.160031268317301, 0.0 ], [ 73.146987780897803, 28.159452180777301, 0.0 ], [ 73.147199275727601, 28.159212131263299, 0.0 ], [ 73.147947707387502, 28.158467161167799, 0.0 ], [ 73.148123954177507, 28.158253255500099, 0.0 ], [ 73.148521434757399, 28.157850128864499, 0.0 ], [ 73.1492897190966, 28.1584039124761, 0.0 ], [ 73.149569229153798, 28.158131134986501, 0.0 ], [ 73.149979385903094, 28.157641296694599, 0.0 ], [ 73.150490815641703, 28.157060134483899, 0.0 ], [ 73.1505789352276, 28.156965926903801, 0.0 ], [ 73.150597089435493, 28.156952960248091, 0.0 ], [ 73.150913997004906, 28.156604085070899, 0.0 ], [ 73.151431068622202, 28.156004503967601, 0.0 ], [ 73.151449052605798, 28.155991354401191, 0.0 ], [ 73.151616661380601, 28.1558244078503, 0.0 ], [ 73.151638197918999, 28.155815466483801, 0.0 ], [ 73.152353425913901, 28.155102834963799, 0.0 ], [ 73.153555899407294, 28.153645887596099, 0.0 ], [ 73.153657817632293, 28.153697203034302, 0.0 ], [ 73.153760463831603, 28.1537506038425, 0.0 ], [ 73.153932769807597, 28.1534400387701, 0.0 ], [ 73.154103772975603, 28.153224339246499, 0.0 ], [ 73.154760258239705, 28.1524392206057, 0.0 ], [ 73.155217772863296, 28.151759531967301, 0.0 ], [ 73.155197231660296, 28.151749680321899, 0.0 ], [ 73.154559012983398, 28.151318276649199, 0.0 ], [ 73.154085630621296, 28.1510704567259, 0.0 ], [ 73.153620798511398, 28.1508157926156, 0.0 ], [ 73.1533634618836, 28.150682307736801, 0.0 ], [ 73.152253006111707, 28.1501493992081, 0.0 ], [ 73.152024295358203, 28.1500561411337, 0.0 ], [ 73.150650549499801, 28.1494008152515, 0.0 ], [ 73.151502845650299, 28.147904546388101, 0.0 ], [ 73.152026020588707, 28.147212966420199, 0.0 ], [ 73.151754999303193, 28.146989428428501, 0.0 ], [ 73.151173745870807, 28.146486366294599, 0.0 ], [ 73.150521681891902, 28.145979999457001, 0.0 ], [ 73.150307270612899, 28.145801163246599, 0.0 ], [ 73.149987510576395, 28.145516472771099, 0.0 ], [ 73.149676327458494, 28.145922134435601, 0.0 ], [ 73.149036452195503, 28.1468074450313, 0.0 ], [ 73.148942748697394, 28.14701245118, 0.0 ], [ 73.148831036264596, 28.147169366128601, 0.0 ], [ 73.148382344729299, 28.147940561221699, 0.0 ], [ 73.147884330430301, 28.148732827578598, 0.0 ], [ 73.147602228858801, 28.149194675264699, 0.0 ], [ 73.147449518512204, 28.1493990175228, 0.0 ], [ 73.147079910650902, 28.149860303103999, 0.0 ], [ 73.146899748846906, 28.150117228847702, 0.0 ], [ 73.146864009761501, 28.150233756496409, 0.0 ], [ 73.146824829705906, 28.150348477806101, 0.0 ], [ 73.146501163007997, 28.150839514092699, 0.0 ], [ 73.146379399353606, 28.151017353776801, 0.0 ], [ 73.145289461837095, 28.1504449418115, 0.0 ], [ 73.145392680524694, 28.1502561670648, 0.0 ], [ 73.145399669099902, 28.150243537205998, 0.0 ], [ 73.145362414492396, 28.150226373620502, 0.0 ], [ 73.144952753247395, 28.1500378010338, 0.0 ], [ 73.144447191967103, 28.149797246802901, 0.0 ], [ 73.144191244831504, 28.149662554666399, 0.0 ], [ 73.144106454373798, 28.1497916648099, 0.0 ], [ 73.143497610656695, 28.149349409980299, 0.0 ], [ 73.142997982352796, 28.1489920011796, 0.0 ], [ 73.142747147270697, 28.148814700314691, 0.0 ], [ 73.143282039587206, 28.148011906728801, 0.0 ], [ 73.143650872685896, 28.147380031845898, 0.0 ], [ 73.143935778955296, 28.146847135940899, 0.0 ], [ 73.145387472202401, 28.1450688005045, 0.0 ], [ 73.145577287204304, 28.144922556784401, 0.0 ], [ 73.146858548438203, 28.145657124008, 0.0 ], [ 73.147810923380703, 28.143876941354002, 0.0 ], [ 73.147625712825302, 28.143795563206801, 0.0 ], [ 73.146774208231093, 28.143491112380001, 0.0 ], [ 73.145910162811106, 28.142984681534401, 0.0 ], [ 73.145571440866604, 28.1427102923302, 0.0 ], [ 73.145167829677604, 28.142480037829301, 0.0 ], [ 73.144373828639004, 28.141996430401399, 0.0 ], [ 73.143411828849693, 28.141303854717599, 0.0 ], [ 73.144045488800103, 28.140062732597901, 0.0 ], [ 73.142858924005495, 28.138937961903199, 0.0 ], [ 73.140203688415099, 28.139059682569101, 0.0 ], [ 73.139484682480202, 28.139787371752799, 0.0 ], [ 73.139824503013401, 28.1400256111706, 0.0 ], [ 73.140368462599398, 28.140343897278601, 0.0 ], [ 73.140034575702799, 28.141015386584101, 0.0 ], [ 73.139905426839405, 28.141316692311701, 0.0 ], [ 73.139170988323301, 28.142742273815099, 0.0 ], [ 73.139003292408802, 28.142984504248499, 0.0 ], [ 73.138642804697099, 28.142726407794701, 0.0 ], [ 73.137990125554595, 28.144461475965201, 0.0 ], [ 73.138375213022201, 28.144780318158901, 0.0 ], [ 73.1382341810734, 28.144958727930199, 0.0 ], [ 73.137875862096095, 28.144737442462201, 0.0 ], [ 73.137859752262997, 28.144722910708602, 0.0 ], [ 73.137485895819196, 28.144491179340601, 0.0 ], [ 73.137205755972403, 28.144286089103101, 0.0 ], [ 73.136269890847998, 28.143483477836899, 0.0 ], [ 73.136049353367099, 28.143307352478001, 0.0 ], [ 73.135277448383206, 28.142588302905001, 0.0 ], [ 73.134223686219599, 28.141740467591902, 0.0 ], [ 73.133625870466204, 28.141253740784698, 0.0 ], [ 73.134404091453803, 28.140086326550801, 0.0 ], [ 73.135090572095507, 28.139217161566201, 0.0 ], [ 73.1350107028845, 28.139116760393801, 0.0 ], [ 73.134997774326806, 28.139119057099801, 0.0 ], [ 73.131502683576301, 28.1398455869627, 0.0 ], [ 73.130327366161893, 28.1400554248841, 0.0 ], [ 73.128937120672802, 28.1402135584378, 0.0 ], [ 73.128387175458798, 28.140185425808191, 0.0 ], [ 73.127782506047694, 28.140895597907601, 0.0 ], [ 73.127333245301898, 28.140813688626199, 0.0 ], [ 73.1270557594341, 28.140715797767299, 0.0 ], [ 73.126813566570902, 28.140561995348801, 0.0 ], [ 73.125907204102404, 28.140803826535802, 0.0 ], [ 73.125032266936699, 28.140961441719199, 0.0 ], [ 73.124736103698297, 28.141000154789499, 0.0 ], [ 73.124620131104507, 28.141003223884201, 0.0 ], [ 73.124531986701399, 28.141005482619398, 0.0 ], [ 73.124166825442998, 28.1410186132372, 0.0 ], [ 73.123597265533306, 28.141058480366901, 0.0 ], [ 73.123068892265096, 28.141092781818799, 0.0 ], [ 73.122544227992506, 28.141117548131501, 0.0 ], [ 73.122447315805502, 28.141390164750501, 0.0 ], [ 73.122714615188997, 28.141668007233999, 0.0 ], [ 73.122735814583294, 28.1416777733534, 0.0 ], [ 73.122006601992894, 28.142692246959001, 0.0 ], [ 73.121869178227897, 28.1428830790361, 0.0 ], [ 73.121052100475893, 28.143805150657201, 0.0 ], [ 73.119754814517805, 28.1429356198385, 0.0 ], [ 73.119168242595705, 28.143806227559701, 0.0 ], [ 73.119092600786402, 28.144041961905799, 0.0 ], [ 73.119123008696306, 28.144487236680099, 0.0 ], [ 73.1191788316669, 28.144525707030901, 0.0 ], [ 73.120257690758805, 28.145144093780601, 0.0 ], [ 73.120682060243695, 28.1454207113485, 0.0 ], [ 73.121554640424904, 28.146054433360302, 0.0 ], [ 73.121142397921503, 28.146592183458399, 0.0 ], [ 73.121400994235003, 28.147068707619798, 0.0 ], [ 73.121690125581097, 28.147233812157801, 0.0 ], [ 73.120228075641194, 28.149399544063801, 0.0 ], [ 73.118907435160096, 28.149382776223501, 0.0 ], [ 73.118467598954695, 28.149405504796199, 0.0 ], [ 73.118393838312898, 28.1497883345688, 0.0 ], [ 73.118876506190801, 28.149812435468501, 0.0 ], [ 73.118865484060706, 28.1507247844193, 0.0 ], [ 73.119686233327897, 28.150728374493799, 0.0 ], [ 73.120899719254794, 28.150749711682401, 0.0 ], [ 73.120939521176396, 28.150295446669201, 0.0 ], [ 73.121422138183704, 28.150310982864401, 0.0 ], [ 73.121458565736603, 28.150111095918309, 0.0 ], [ 73.121511733496305, 28.1498498741528, 0.0 ], [ 73.121922464156995, 28.149827016511601, 0.0 ], [ 73.121964593925298, 28.1494222726656, 0.0 ], [ 73.121977969351704, 28.1494032070296, 0.0 ], [ 73.122166482777303, 28.149175055946191, 0.0 ], [ 73.123116624965206, 28.149444506829301, 0.0 ], [ 73.123180187474404, 28.149208171568901, 0.0 ], [ 73.123304712150599, 28.148969783720599, 0.0 ], [ 73.122771854176193, 28.148850958454101, 0.0 ], [ 73.122750319278097, 28.148842252581101, 0.0 ], [ 73.122562560008902, 28.148752422318399, 0.0 ], [ 73.123024504445993, 28.148226124333501, 0.0 ], [ 73.123293160780605, 28.147802482217099, 0.0 ], [ 73.123642296675698, 28.148065687893599, 0.0 ], [ 73.1240443803771, 28.148395938193101, 0.0 ], [ 73.123669664776799, 28.149428539185799, 0.0 ], [ 73.124325661467594, 28.149493168306801, 0.0 ], [ 73.124037022243598, 28.1506529835519, 0.0 ], [ 73.124075413930001, 28.1506520293708, 0.0 ], [ 73.124171092428199, 28.150649080239901, 0.0 ], [ 73.125059051070593, 28.150626458232502, 0.0 ], [ 73.125025272698394, 28.151032860848499, 0.0 ], [ 73.125576274499096, 28.151051944738391, 0.0 ], [ 73.126533733022299, 28.151089229812499, 0.0 ], [ 73.126585718598704, 28.150645534149, 0.0 ], [ 73.127616682868194, 28.150647340254501, 0.0 ], [ 73.127618221332796, 28.150155197228901, 0.0 ], [ 73.127613975065003, 28.149283381439201, 0.0 ], [ 73.128209208201298, 28.149279045107601, 0.0 ], [ 73.128199779206696, 28.1493639622906, 0.0 ], [ 73.128189808860895, 28.149460098438801, 0.0 ], [ 73.128522056294202, 28.149478860870701, 0.0 ], [ 73.1287878089081, 28.1494940248385, 0.0 ], [ 73.128749351721595, 28.150001700113201, 0.0 ], [ 73.128176214666695, 28.1499893115638, 0.0 ], [ 73.128183983909807, 28.1504341044824, 0.0 ], [ 73.128709085967799, 28.150464048086299, 0.0 ], [ 73.128677317291604, 28.1509324952826, 0.0 ], [ 73.128172833552497, 28.1509234811003, 0.0 ], [ 73.128160888659295, 28.151135445576699, 0.0 ], [ 73.128154543567007, 28.151537044239099, 0.0 ], [ 73.128664177402399, 28.151527015254999, 0.0 ], [ 73.129460972353002, 28.1515268174116, 0.0 ], [ 73.130159381369793, 28.151524206928698, 0.0 ], [ 73.130799591047605, 28.151521006194798, 0.0 ], [ 73.131166000478501, 28.1515189671223, 0.0 ], [ 73.131143468048705, 28.151156103782899, 0.0 ], [ 73.131153274708296, 28.151074530529499, 0.0 ], [ 73.1308212168625, 28.151040426365501, 0.0 ], [ 73.1306318911613, 28.1510219595589, 0.0 ], [ 73.130621530084895, 28.1503172911086, 0.0 ], [ 73.130591248916801, 28.149988551545999, 0.0 ], [ 73.130558757026193, 28.1496440702883, 0.0 ], [ 73.131107254333102, 28.149620637625901, 0.0 ], [ 73.131613543555005, 28.149599244098599, 0.0 ], [ 73.131650753028296, 28.150091492231098, 0.0 ], [ 73.131699571773794, 28.150712054447101, 0.0 ], [ 73.132177428011204, 28.150762827498799, 0.0 ], [ 73.132200462708497, 28.1507643869883, 0.0 ], [ 73.132249477683999, 28.151006648110101, 0.0 ], [ 73.132615204574094, 28.151037390529801, 0.0 ], [ 73.132795498358604, 28.151051228290999, 0.0 ], [ 73.132797237540501, 28.1505666947455, 0.0 ], [ 73.132798136413001, 28.150120016187099, 0.0 ], [ 73.132802917436507, 28.1496520387409, 0.0 ], [ 73.132807741513503, 28.149329436277199, 0.0 ], [ 73.132803740749395, 28.149269549817099, 0.0 ], [ 73.132963389379597, 28.149263667219099, 0.0 ], [ 73.1329860758119, 28.149266503287102, 0.0 ], [ 73.133008728225803, 28.1492642581373, 0.0 ], [ 73.133031490723596, 28.149260949602301, 0.0 ], [ 73.134540112359801, 28.149217186974699, 0.0 ], [ 73.134508400974298, 28.150676934419099, 0.0 ], [ 73.135054234621904, 28.150634769240501, 0.0 ], [ 73.135485773213702, 28.150699194810901, 0.0 ], [ 73.135452524385997, 28.150878707354099, 0.0 ], [ 73.135310538651098, 28.151555546751201, 0.0 ], [ 73.135330592069593, 28.1515558287864, 0.0 ], [ 73.135340757395198, 28.155588098278901, 0.0 ], [ 73.135334192446393, 28.156091382142201, 0.0 ], [ 73.136090439506702, 28.156329588568202, 0.0 ], [ 73.136435385646607, 28.156488338824399, 0.0 ], [ 73.136723367834605, 28.156689693641091, 0.0 ], [ 73.136739036482894, 28.156705094928299, 0.0 ], [ 73.136934550461405, 28.156930730350599, 0.0 ], [ 73.137093010391794, 28.157127615021299, 0.0 ], [ 73.137148547913895, 28.157323261985201, 0.0 ], [ 73.1371816059536, 28.157377018940501, 0.0 ], [ 73.137524593442706, 28.1576474172319, 0.0 ], [ 73.137941906394403, 28.157956538419199, 0.0 ], [ 73.138344777037403, 28.1582218740845, 0.0 ], [ 73.139002593490204, 28.158584717014399, 0.0 ], [ 73.139640872004094, 28.158977703826, 0.0 ], [ 73.139662562639501, 28.158988791709699, 0.0 ], [ 73.139678226826504, 28.159000961874501, 0.0 ], [ 73.139744200190705, 28.159042747783001, 0.0 ], [ 73.140113584224196, 28.159245923553499, 0.0 ], [ 73.140503453170993, 28.159462877081801, 0.0 ], [ 73.141151936437396, 28.159858748181701, 0.0 ], [ 73.140952542773405, 28.160198464529699, 0.0 ], [ 73.140780708499605, 28.160463011185801, 0.0 ], [ 73.140267847678501, 28.161058797810298, 0.0 ], [ 73.140176677840302, 28.161163804213299, 0.0 ], [ 73.140358394670301, 28.161320779389399, 0.0 ], [ 73.140703354123701, 28.161617295703699, 0.0 ], [ 73.139022500475093, 28.163591694286701, 0.0 ], [ 73.1391510157477, 28.1637055512854, 0.0 ], [ 73.139645800599396, 28.164186426838299, 0.0 ], [ 73.139847310072398, 28.164353246607199, 0.0 ], [ 73.140240311443904, 28.1646314926858, 0.0 ], [ 73.1406043559587, 28.164910210814501, 0.0 ], [ 73.140539857463594, 28.165106220833, 0.0 ], [ 73.141104506089803, 28.1656645944304, 0.0 ], [ 73.142059922597895, 28.166513016764998, 0.0 ], [ 73.142389664744101, 28.166759643370099, 0.0 ], [ 73.142569951594396, 28.166886337609501, 0.0 ], [ 73.142826696668607, 28.167114970895099, 0.0 ], [ 73.143326977988906, 28.167471633119099, 0.0 ], [ 73.143346114225594, 28.167483335597101, 0.0 ], [ 73.143719279281299, 28.167050141883799, 0.0 ], [ 73.145120047170593, 28.165414116163099, 0.0 ], [ 73.145928293617303, 28.1658426870851, 0.0 ], [ 73.145531490982094, 28.1664143450115, 0.0 ], [ 73.144087671730603, 28.168054970960402, 0.0 ], [ 73.144482163473299, 28.1683356081986, 0.0 ], [ 73.144839528805406, 28.168652209039902, 0.0 ], [ 73.145279914752805, 28.169010011216798, 0.0 ], [ 73.145925205259701, 28.1694736732242, 0.0 ], [ 73.146276274259094, 28.169738926465609, 0.0 ], [ 73.146347152206602, 28.169658016427601, 0.0 ], [ 73.146372517265505, 28.169629210917101, 0.0 ], [ 73.146526949742196, 28.169451534900901, 0.0 ], [ 73.146604848514897, 28.1693738963626, 0.0 ], [ 73.146651902789301, 28.169370003074999, 0.0 ], [ 73.146901574029201, 28.169362336726, 0.0 ], [ 73.147061104565097, 28.169372130577791, 0.0 ], [ 73.147106343148295, 28.1693831841053, 0.0 ], [ 73.148049743906597, 28.169640880903899, 0.0 ], [ 73.148255816302694, 28.169256763310901, 0.0 ], [ 73.148512661056301, 28.1688005768818, 0.0 ], [ 73.148533967662601, 28.1687655343129, 0.0 ], [ 73.148765106256306, 28.1684584175288, 0.0 ] ] ] } }
]
}
