{
"type": "FeatureCollection",
"name": "Calibrated module",
"crs": { "type": "name", "properties": { "name": "urn:ogc:def:crs:OGC:1.3:CRS84" } },
"features": [
{ "type": "Feature", "properties": { "id": "kml_1", "Name": "CALIBRATED PV MODULES", "description": null, "timestamp": null, "begin": null, "end": null, "altitudeMode": null, "tessellate": -1, "extrude": 0, "visibility": -1, "drawOrder": null, "icon": null }, "geometry": { "type": "MultiLineString", "coordinates": [ [ [ 73.154117911814595, 28.1681320565839, 0.0 ], [ 73.154141043402703, 28.1681323684424, 0.0 ], [ 73.154152032963594, 28.1674922129958, 0.0 ], [ 73.154128901513005, 28.167491901145699, 0.0 ], [ 73.154117911814595, 28.1681320565839, 0.0 ] ], [ [ 73.154061915454093, 28.168131301628801, 0.0 ], [ 73.154085047041306, 28.168131613496701, 0.0 ], [ 73.154096036935101, 28.167491458070199, 0.0 ], [ 73.154072905485407, 28.167491146210601, 0.0 ], [ 73.154061915454093, 28.168131301628801, 0.0 ] ], [ [ 73.142982871613796, 28.164263830119001, 0.0 ], [ 73.143006002224197, 28.164264143818698, 0.0 ], [ 73.143017056264696, 28.1636239920484, 0.0 ], [ 73.142993925791799, 28.163623678357101, 0.0 ], [ 73.142982871613796, 28.164263830119001, 0.0 ] ], [ [ 73.142926877620098, 28.1642630707066, 0.0 ], [ 73.142950008229604, 28.164263384415801, 0.0 ], [ 73.142961062602893, 28.163623232665799, 0.0 ], [ 73.142937932130906, 28.163622918965, 0.0 ], [ 73.142926877620098, 28.1642630707066, 0.0 ] ], [ [ 73.143783094215607, 28.156839371580698, 0.0 ], [ 73.143806223240404, 28.156839685069698, 0.0 ], [ 73.143817269082504, 28.156199532314599, 0.0 ], [ 73.143794140195098, 28.156199218834001, 0.0 ], [ 73.143783094215607, 28.156839371580698, 0.0 ] ], [ [ 73.143727104060204, 28.1568386126783, 0.0 ], [ 73.143750233084205, 28.1568389261768, 0.0 ], [ 73.143761279258896, 28.156198773442, 0.0 ], [ 73.143738150372499, 28.156198459951899, 0.0 ], [ 73.143727104060204, 28.1568386126783, 0.0 ] ], [ [ 73.137518194623397, 28.149938620978901, 0.0 ], [ 73.137541322082896, 28.149938935455101, 0.0 ], [ 73.1375524019886, 28.1492987843368, 0.0 ], [ 73.137529274666605, 28.149298469868999, 0.0 ], [ 73.137518194623397, 28.149938620978901, 0.0 ] ], [ [ 73.137462208257503, 28.149937859686698, 0.0 ], [ 73.137485335715994, 28.149938174172291, 0.0 ], [ 73.137496415954402, 28.149298023074401, 0.0 ], [ 73.137473288633203, 28.1492977085971, 0.0 ], [ 73.137462208257503, 28.149937859686698, 0.0 ] ], [ [ 73.126881033219703, 28.143336793557101, 0.0 ], [ 73.1269041591204, 28.143337109760999, 0.0 ], [ 73.126915299202395, 28.142696961917299, 0.0 ], [ 73.126892173439003, 28.142696645721902, 0.0 ], [ 73.126881033219703, 28.143336793557101, 0.0 ] ], [ [ 73.126825050627204, 28.1433360280827, 0.0 ], [ 73.126848176527005, 28.143336344295999, 0.0 ], [ 73.126859316941506, 28.142696196472802, 0.0 ], [ 73.126836191179095, 28.142695880268001, 0.0 ], [ 73.126825050627204, 28.1433360280827, 0.0 ] ], [ [ 73.123452727321904, 28.1472786860502, 0.0 ], [ 73.123475854023894, 28.147279002873201, 0.0 ], [ 73.123486759429596, 28.1466535899809, 0.0 ], [ 73.123463632861899, 28.146653273166201, 0.0 ], [ 73.123452727321904, 28.1472786860502, 0.0 ] ], [ [ 73.123396742789794, 28.147277919077101, 0.0 ], [ 73.123419869490803, 28.1472782359095, 0.0 ], [ 73.123430775221493, 28.1466528230373, 0.0 ], [ 73.123407648654606, 28.146652506213201, 0.0 ], [ 73.123396742789794, 28.147277919077101, 0.0 ] ], [ [ 73.128459205947195, 28.149195533814002, 0.0 ], [ 73.128482333127295, 28.149195849811701, 0.0 ], [ 73.128493210322006, 28.148570435299, 0.0 ], [ 73.128470083276099, 28.1485701193096, 0.0 ], [ 73.128459205947195, 28.149195533814002, 0.0 ] ], [ [ 73.128403220257496, 28.1491947688388, 0.0 ], [ 73.128426347436701, 28.1491950848459, 0.0 ], [ 73.128437224956301, 28.148569670353201, 0.0 ], [ 73.128414097911303, 28.148569354354301, 0.0 ], [ 73.128403220257496, 28.1491947688388, 0.0 ] ], [ [ 73.143410006981, 28.152497047852599, 0.0 ], [ 73.143433135067696, 28.1524973613604, 0.0 ], [ 73.143443926892104, 28.1518719418162, 0.0 ], [ 73.143420798939601, 28.151871628316599, 0.0 ], [ 73.143410006981, 28.152497047852599, 0.0 ] ], [ [ 73.143354019096606, 28.1524962889048, 0.0 ], [ 73.143377147182406, 28.152496602422001, 0.0 ], [ 73.143387939331703, 28.151871182897601, 0.0 ], [ 73.143364811380195, 28.151870869388599, 0.0 ], [ 73.143354019096606, 28.1524962889048, 0.0 ] ], [ [ 73.1379815743569, 28.155521398244591, 0.0 ], [ 73.138004703022204, 28.155521712699599, 0.0 ], [ 73.138015527761596, 28.1548962953628, 0.0 ], [ 73.137992399230697, 28.154895980915999, 0.0 ], [ 73.1379815743569, 28.155521398244591, 0.0 ] ], [ [ 73.137925585072097, 28.1555206370038, 0.0 ], [ 73.137948713736407, 28.155520951468201, 0.0 ], [ 73.137959538800899, 28.154895534151301, 0.0 ], [ 73.137936410270797, 28.154895219695099, 0.0 ], [ 73.137925585072097, 28.1555206370038, 0.0 ] ], [ [ 73.148518286483394, 28.1680564478321, 0.0 ], [ 73.148541417982003, 28.168056760635601, 0.0 ], [ 73.148552187141505, 28.167431340699601, 0.0 ], [ 73.148529055777303, 28.1674310279043, 0.0 ], [ 73.148518286483394, 28.1680564478321, 0.0 ] ], [ [ 73.148462290339594, 28.168055690589402, 0.0 ], [ 73.148485421837293, 28.168056003402299, 0.0 ], [ 73.148496191322096, 28.167430583486102, 0.0 ], [ 73.148473059958803, 28.1674302706814, 0.0 ], [ 73.148462290339594, 28.168055690589402, 0.0 ] ], [ [ 73.1587579618663, 28.171912202536301, 0.0 ], [ 73.158781094328006, 28.1719125136492, 0.0 ], [ 73.158791805677794, 28.171287090447599, 0.0 ], [ 73.158768673350494, 28.1712867793428, 0.0 ], [ 73.1587579618663, 28.171912202536301, 0.0 ] ], [ [ 73.158701963390996, 28.171911449385799, 0.0 ], [ 73.158725095851807, 28.171911760508198, 0.0 ], [ 73.158735807526995, 28.171286337326201, 0.0 ], [ 73.158712675200604, 28.171286026212002, 0.0 ], [ 73.158701963390996, 28.171911449385799, 0.0 ] ], [ [ 73.162160232980696, 28.169479471009598, 0.0 ], [ 73.162183364963497, 28.1694797815234, 0.0 ], [ 73.162194055437695, 28.168854356901999, 0.0 ], [ 73.1621709235894, 28.168854046396401, 0.0 ], [ 73.162160232980696, 28.169479471009598, 0.0 ] ], [ [ 73.162104235664899, 28.169478719309701, 0.0 ], [ 73.162127367646704, 28.1694790298329, 0.0 ], [ 73.162138058446303, 28.168853605231099, 0.0 ], [ 73.162114926598804, 28.168853294716001, 0.0 ], [ 73.162104235664899, 28.169478719309701, 0.0 ] ], [ [ 73.153408429253304, 28.163785215843198, 0.0 ], [ 73.153431559897399, 28.163785527777399, 0.0 ], [ 73.153442298700995, 28.1631601057212, 0.0 ], [ 73.153419168191206, 28.163159793795099, 0.0 ], [ 73.153408429253304, 28.163785215843198, 0.0 ] ], [ [ 73.153352435177993, 28.163784460704399, 0.0 ], [ 73.153375565821193, 28.1637847726481, 0.0 ], [ 73.153386304950004, 28.1631593506117, 0.0 ], [ 73.153363174441097, 28.163159038676099, 0.0 ], [ 73.153352435177993, 28.163784460704399, 0.0 ] ], [ [ 73.147809032445707, 28.163709588757602, 0.0 ], [ 73.147832163000302, 28.1637099016367, 0.0 ], [ 73.147842934322199, 28.163084481555099, 0.0 ], [ 73.147819803901896, 28.1630841686842, 0.0 ], [ 73.147809032445707, 28.163709588757602, 0.0 ] ], [ [ 73.147753038587197, 28.1637088313317, 0.0 ], [ 73.147776169140897, 28.163709144220299, 0.0 ], [ 73.147786940787896, 28.163083724158501, 0.0 ], [ 73.147763810368602, 28.163083411278109, 0.0 ], [ 73.147753038587197, 28.1637088313317, 0.0 ] ], [ [ 73.143505677055302, 28.1599336571972, 0.0 ], [ 73.143528806741699, 28.159933970764499, 0.0 ], [ 73.143539601373305, 28.159308551865202, 0.0 ], [ 73.1435164718213, 28.1593082383061, 0.0 ], [ 73.143505677055302, 28.1599336571972, 0.0 ] ], [ [ 73.143449685298705, 28.1599328981052, 0.0 ], [ 73.143472814984094, 28.159933211681999, 0.0 ], [ 73.143483609940802, 28.159307792802501, 0.0 ], [ 73.143460480389706, 28.159307479233899, 0.0 ], [ 73.143449685298705, 28.1599328981052, 0.0 ] ], [ [ 73.149168817348297, 28.156292653337498, 0.0 ], [ 73.149191946326198, 28.1562929659117, 0.0 ], [ 73.149202706398697, 28.155667544671299, 0.0 ], [ 73.149179577555003, 28.155667232105301, 0.0 ], [ 73.149168817348297, 28.156292653337498, 0.0 ] ], [ [ 73.149112827306297, 28.156291896649801, 0.0 ], [ 73.149135956283402, 28.156292209233399, 0.0 ], [ 73.149146716680903, 28.155666788012699, 0.0 ], [ 73.149123587838105, 28.155666475437201, 0.0 ], [ 73.149112827306297, 28.156291896649801, 0.0 ] ], [ [ 73.149476157772696, 28.151448214241299, 0.0 ], [ 73.149499285713603, 28.1514485267145, 0.0 ], [ 73.1495100418161, 28.1508231049229, 0.0 ], [ 73.149486914009501, 28.150822792458001, 0.0 ], [ 73.149476157772696, 28.151448214241299, 0.0 ] ], [ [ 73.149420170241299, 28.151447457798099, 0.0 ], [ 73.149443298181296, 28.151447770280701, 0.0 ], [ 73.149454054608697, 28.1508223485089, 0.0 ], [ 73.149430926802907, 28.150822036034501, 0.0 ], [ 73.149420170241299, 28.151447457798099, 0.0 ] ], [ [ 73.140060502479699, 28.145406817379801, 0.0 ], [ 73.140083628999093, 28.145407131380701, 0.0 ], [ 73.140094437074495, 28.1447817123804, 0.0 ], [ 73.140071310689393, 28.1447813983877, 0.0 ], [ 73.140060502479699, 28.145406817379801, 0.0 ] ], [ [ 73.140004518389503, 28.145406057238301, 0.0 ], [ 73.140027644907903, 28.145406371248701, 0.0 ], [ 73.140038453308307, 28.144780952268199, 0.0 ], [ 73.140015326924001, 28.144780638266099, 0.0 ], [ 73.140004518389503, 28.145406057238301, 0.0 ] ], [ [ 73.143990076984693, 28.144840504867499, 0.0 ], [ 73.144013203434099, 28.144840818199398, 0.0 ], [ 73.144023988426397, 28.144215397750401, 0.0 ], [ 73.144000862111298, 28.144215084426609, 0.0 ], [ 73.143990076984693, 28.144840504867499, 0.0 ] ], [ [ 73.143934093063905, 28.144839746345301, 0.0 ], [ 73.143957219512401, 28.1448400596867, 0.0 ], [ 73.143968004829603, 28.144214639257498, 0.0 ], [ 73.143944878515299, 28.144214325924299, 0.0 ], [ 73.143934093063905, 28.144839746345301, 0.0 ] ], [ [ 73.132374872499796, 28.142987700200699, 0.0 ], [ 73.132397998398204, 28.142988015473801, 0.0 ], [ 73.132408850019303, 28.142362598993699, 0.0 ], [ 73.132385724255101, 28.142362283728801, 0.0 ], [ 73.132374872499796, 28.142987700200699, 0.0 ] ], [ [ 73.132318889912796, 28.142986936979199, 0.0 ], [ 73.132342015810295, 28.142987252261801, 0.0 ], [ 73.132352867756296, 28.142361835801701, 0.0 ], [ 73.132329741992905, 28.142361520527299, 0.0 ], [ 73.132318889912796, 28.142986936979199, 0.0 ] ] ] } }
]
}
