{
"type": "FeatureCollection",
"name": "Power_station_numbers",
"bbox": [ 73.1232452, 28.1426485, 0.0000000, 73.1621051, 28.1706775, 0.0000000 ],                                                  
"features": [
{ "type": "Feature", "properties": { "id": "kml_301", "Name": "ITC-1", "description": null, "timestamp": null, "begin": null, "end": null, "altitudeMode": null, "tessellate": -1, "extrude": 0, "visibility": -1, "drawOrder": null, "icon": null }, "bbox": [ 73.1437559, 28.1441306, 0.0, 73.1437559, 28.1441306, 0.0 ], "geometry": { "type": "Point", "coordinates": [ 73.1437559, 28.1441306, 0.0 ] } },
{ "type": "Feature", "properties": { "id": "kml_319", "Name": "ITC-2", "description": null, "timestamp": null, "begin": null, "end": null, "altitudeMode": null, "tessellate": -1, "extrude": 0, "visibility": -1, "drawOrder": null, "icon": null }, "bbox": [ 73.1400185, 28.1446931, 0.0, 73.1400185, 28.1446931, 0.0 ], "geometry": { "type": "Point", "coordinates": [ 73.1400185, 28.1446931, 0.0 ] } },
{ "type": "Feature", "properties": { "id": "kml_300", "Name": "ITC-3", "description": null, "timestamp": null, "begin": null, "end": null, "altitudeMode": null, "tessellate": -1, "extrude": 0, "visibility": -1, "drawOrder": null, "icon": null }, "bbox": [ 73.1323359, 28.1433787, 0.0, 73.1323359, 28.1433787, 0.0 ], "geometry": { "type": "Point", "coordinates": [ 73.1323359, 28.1433787, 0.0 ] } },
{ "type": "Feature", "properties": { "id": "kml_305", "Name": "ITC-4", "description": null, "timestamp": null, "begin": null, "end": null, "altitudeMode": null, "tessellate": -1, "extrude": 0, "visibility": -1, "drawOrder": null, "icon": null }, "bbox": [ 73.1265997, 28.1426485, 0.0, 73.1265997, 28.1426485, 0.0 ], "geometry": { "type": "Point", "coordinates": [ 73.1265997, 28.1426485, 0.0 ] } },
{ "type": "Feature", "properties": { "id": "kml_318", "Name": "ITC-5", "description": null, "timestamp": null, "begin": null, "end": null, "altitudeMode": null, "tessellate": -1, "extrude": 0, "visibility": -1, "drawOrder": null, "icon": null }, "bbox": [ 73.1232452, 28.1477189, 0.0, 73.1232452, 28.1477189, 0.0 ], "geometry": { "type": "Point", "coordinates": [ 73.1232452, 28.1477189, 0.0 ] } },
{ "type": "Feature", "properties": { "id": "kml_317", "Name": "ITC-6", "description": null, "timestamp": null, "begin": null, "end": null, "altitudeMode": null, "tessellate": -1, "extrude": 0, "visibility": -1, "drawOrder": null, "icon": null }, "bbox": [ 73.1283623, 28.1479869, 0.0, 73.1283623, 28.1479869, 0.0 ], "geometry": { "type": "Point", "coordinates": [ 73.1283623, 28.1479869, 0.0 ] } },
{ "type": "Feature", "properties": { "id": "kml_316", "Name": "ITC-7", "description": null, "timestamp": null, "begin": null, "end": null, "altitudeMode": null, "tessellate": -1, "extrude": 0, "visibility": -1, "drawOrder": null, "icon": null }, "bbox": [ 73.1375215, 28.14923, 0.0, 73.1375215, 28.14923, 0.0 ], "geometry": { "type": "Point", "coordinates": [ 73.1375215, 28.14923, 0.0 ] } },
{ "type": "Feature", "properties": { "id": "kml_315", "Name": "ITC-8", "description": null, "timestamp": null, "begin": null, "end": null, "altitudeMode": null, "tessellate": -1, "extrude": 0, "visibility": -1, "drawOrder": null, "icon": null }, "bbox": [ 73.1491074, 28.1503287, 0.0, 73.1491074, 28.1503287, 0.0 ], "geometry": { "type": "Point", "coordinates": [ 73.1491074, 28.1503287, 0.0 ] } },
{ "type": "Feature", "properties": { "id": "kml_313", "Name": "ITC-9", "description": null, "timestamp": null, "begin": null, "end": null, "altitudeMode": null, "tessellate": -1, "extrude": 0, "visibility": -1, "drawOrder": null, "icon": null }, "bbox": [ 73.1432034, 28.1517792, 0.0, 73.1432034, 28.1517792, 0.0 ], "geometry": { "type": "Point", "coordinates": [ 73.1432034, 28.1517792, 0.0 ] } },
{ "type": "Feature", "properties": { "id": "kml_304", "Name": "ITC-10", "description": null, "timestamp": null, "begin": null, "end": null, "altitudeMode": null, "tessellate": -1, "extrude": 0, "visibility": -1, "drawOrder": null, "icon": null }, "bbox": [ 73.1379912, 28.1548126, 0.0, 73.1379912, 28.1548126, 0.0 ], "geometry": { "type": "Point", "coordinates": [ 73.1379912, 28.1548126, 0.0 ] } },
{ "type": "Feature", "properties": { "id": "kml_312", "Name": "ITC-11", "description": null, "timestamp": null, "begin": null, "end": null, "altitudeMode": null, "tessellate": -1, "extrude": 0, "visibility": -1, "drawOrder": null, "icon": null }, "bbox": [ 73.1434844, 28.1561233, 0.0, 73.1434844, 28.1561233, 0.0 ], "geometry": { "type": "Point", "coordinates": [ 73.1434844, 28.1561233, 0.0 ] } },
{ "type": "Feature", "properties": { "id": "kml_314", "Name": "ITC-12", "description": null, "timestamp": null, "begin": null, "end": null, "altitudeMode": null, "tessellate": -1, "extrude": 0, "visibility": -1, "drawOrder": null, "icon": null }, "bbox": [ 73.1490993, 28.1555826, 0.0, 73.1490993, 28.1555826, 0.0 ], "geometry": { "type": "Point", "coordinates": [ 73.1490993, 28.1555826, 0.0 ] } },
{ "type": "Feature", "properties": { "id": "kml_311", "Name": "ITC-13", "description": null, "timestamp": null, "begin": null, "end": null, "altitudeMode": null, "tessellate": -1, "extrude": 0, "visibility": -1, "drawOrder": null, "icon": null }, "bbox": [ 73.143428, 28.1592179, 0.0, 73.143428, 28.1592179, 0.0 ], "geometry": { "type": "Point", "coordinates": [ 73.143428, 28.1592179, 0.0 ] } },
{ "type": "Feature", "properties": { "id": "kml_310", "Name": "ITC-14", "description": null, "timestamp": null, "begin": null, "end": null, "altitudeMode": null, "tessellate": -1, "extrude": 0, "visibility": -1, "drawOrder": null, "icon": null }, "bbox": [ 73.1429517, 28.1635547, 0.0, 73.1429517, 28.1635547, 0.0 ], "geometry": { "type": "Point", "coordinates": [ 73.1429517, 28.1635547, 0.0 ] } },
{ "type": "Feature", "properties": { "id": "kml_308", "Name": "ITC-15", "description": null, "timestamp": null, "begin": null, "end": null, "altitudeMode": null, "tessellate": -1, "extrude": 0, "visibility": -1, "drawOrder": null, "icon": null }, "bbox": [ 73.1478127, 28.1630018, 0.0, 73.1478127, 28.1630018, 0.0 ], "geometry": { "type": "Point", "coordinates": [ 73.1478127, 28.1630018, 0.0 ] } },
{ "type": "Feature", "properties": { "id": "kml_306", "Name": "ITC-16", "description": null, "timestamp": null, "begin": null, "end": null, "altitudeMode": null, "tessellate": -1, "extrude": 0, "visibility": -1, "drawOrder": null, "icon": null }, "bbox": [ 73.1534183, 28.1630423, 0.0, 73.1534183, 28.1630423, 0.0 ], "geometry": { "type": "Point", "coordinates": [ 73.1534183, 28.1630423, 0.0 ] } },
{ "type": "Feature", "properties": { "id": "kml_303", "Name": "ITC-17", "description": null, "timestamp": null, "begin": null, "end": null, "altitudeMode": null, "tessellate": -1, "extrude": 0, "visibility": -1, "drawOrder": null, "icon": null }, "bbox": [ 73.1482665, 28.1673197, 0.0, 73.1482665, 28.1673197, 0.0 ], "geometry": { "type": "Point", "coordinates": [ 73.1482665, 28.1673197, 0.0 ] } },
{ "type": "Feature", "properties": { "id": "kml_302", "Name": "ITC-18", "description": null, "timestamp": null, "begin": null, "end": null, "altitudeMode": null, "tessellate": -1, "extrude": 0, "visibility": -1, "drawOrder": null, "icon": null }, "bbox": [ 73.1540953, 28.1674016, 0.0, 73.1540953, 28.1674016, 0.0 ], "geometry": { "type": "Point", "coordinates": [ 73.1540953, 28.1674016, 0.0 ] } },
{ "type": "Feature", "properties": { "id": "kml_307", "Name": "ITC-19", "description": null, "timestamp": null, "begin": null, "end": null, "altitudeMode": null, "tessellate": -1, "extrude": 0, "visibility": -1, "drawOrder": null, "icon": null }, "bbox": [ 73.1585353, 28.1706775, 0.0, 73.1585353, 28.1706775, 0.0 ], "geometry": { "type": "Point", "coordinates": [ 73.1585353, 28.1706775, 0.0 ] } },
{ "type": "Feature", "properties": { "id": "kml_309", "Name": "ITC-20", "description": null, "timestamp": null, "begin": null, "end": null, "altitudeMode": null, "tessellate": -1, "extrude": 0, "visibility": -1, "drawOrder": null, "icon": null }, "bbox": [ 73.1621051, 28.1687863, 0.0, 73.1621051, 28.1687863, 0.0 ], "geometry": { "type": "Point", "coordinates": [ 73.1621051, 28.1687863, 0.0 ] } }
]
}
